H1 CPF 01  gfz 2022 07 18 00  6982 terrasarx 
H2 0702601  6201 31698    2022 07 17 12 59 42 2022 07 22 00 00 42   120 1 1  0 0 0
H9
10 0 59778  43182.000000  0    -786785.877  -2924178.987  -6194153.236
10 0 59778  43302.000000  0    -854354.074  -2068572.598  -6521527.630
10 0 59778  43422.000000  0    -891822.425  -1176206.339  -6735100.122
10 0 59778  43542.000000  0    -898045.077   -263087.801  -6831196.599
10 0 59778  43662.000000  0    -872697.260    654418.907  -6808165.971
10 0 59778  43782.000000  0    -816283.865   1559879.005  -6666404.490
10 0 59778  43902.000000  0    -730130.083   2437073.830  -6408349.634
10 0 59778  44022.000000  0    -616353.808   3270284.531  -6038443.645
10 0 59778  44142.000000  0    -477819.788   4044570.894  -5563066.121
10 0 59778  44262.000000  0    -318076.162   4746038.888  -4990434.113
10 0 59778  44382.000000  0    -141274.943   5362093.732  -4330471.906
10 0 59778  44502.000000  0      47922.602   5881673.998  -3594649.266
10 0 59778  44622.000000  0     244454.261   6295460.365  -2795790.122
10 0 59778  44742.000000  0     442976.622   6596054.901  -1947854.678
10 0 59778  44862.000000  0     637993.710   6778126.486  -1065697.099
10 0 59778  44982.000000  0     823991.678   6838517.095   -164802.856
10 0 59778  45102.000000  0     995576.144   6776305.660    738988.897
10 0 59778  45222.000000  0    1147608.497   6592826.348   1629771.816
10 0 59778  45342.000000  0    1275336.397   6291641.833   2491860.437
10 0 59778  45462.000000  0    1374516.159   5878472.814   3310074.050
10 0 59778  45582.000000  0    1441524.501   5361084.864   4070011.645
10 0 59778  45702.000000  0    1473457.075   4749134.313   4758310.070
10 0 59778  45822.000000  0    1468209.744   4053977.378   5362883.336
10 0 59778  45942.000000  0    1424540.402   3288447.345   5873130.643
10 0 59778  46062.000000  0    1342113.062   2466611.000   6280117.240
10 0 59778  46182.000000  0    1221521.038   1603503.957   6576726.078
10 0 59778  46302.000000  0    1064289.970    714850.898   6757776.237
10 0 59778  46422.000000  0     872860.302   -183222.272   6820106.637
10 0 59778  46542.000000  0     650549.679  -1074479.487   6762628.686
10 0 59778  46662.000000  0     401495.282  -1942868.194   6586345.108
10 0 59778  46782.000000  0     130576.871  -2772808.283   6294333.721
10 0 59778  46902.000000  0    -156677.872  -3549473.300   5891696.217
10 0 59778  47022.000000  0    -454203.126  -4259055.972   5385471.809
10 0 59778  47142.000000  0    -755518.620  -4889015.802   4784521.485
10 0 59778  47262.000000  0   -1053866.527  -5428308.745   4099381.652
10 0 59778  47382.000000  0   -1342358.893  -5867591.579   3342083.085
10 0 59778  47502.000000  0   -1614131.070  -6199393.005   2525940.322
10 0 59778  47622.000000  0   -1862498.506  -6418249.955   1665317.123
10 0 59778  47742.000000  0   -2081113.707  -6520805.385    775369.145
10 0 59778  47862.000000  0   -2264117.031  -6505863.264   -128230.459
10 0 59778  47982.000000  0   -2406278.548  -6374400.286  -1029575.654
10 0 59778  48102.000000  0   -2503127.688  -6129533.689  -1912816.219
10 0 59778  48222.000000  0   -2551067.625  -5776446.347  -2762444.371
10 0 59778  48342.000000  0   -2547471.120  -5322270.824  -3563573.446
10 0 59778  48462.000000  0   -2490755.171  -4775935.237  -4302201.604
10 0 59778  48582.000000  0   -2380433.189  -4147976.870  -4965454.537
10 0 59778  48702.000000  0   -2217144.390  -3450329.468  -5541804.031
10 0 59778  48822.000000  0   -2002660.376  -2696089.187  -6021260.194
10 0 59778  48942.000000  0   -1739868.383  -1899263.501  -6395534.952
10 0 59778  49062.000000  0   -1432731.510  -1074508.570  -6658173.770
10 0 59778  49182.000000  0   -1086228.504   -236861.044  -6804655.493
10 0 59778  49302.000000  0    -706273.792    598531.483  -6832461.114
10 0 59778  49422.000000  0    -299617.682   1416677.438  -6741112.191
10 0 59778  49542.000000  0     126270.231   2203003.204  -6532177.837
10 0 59778  49662.000000  0     563333.673   2943606.677  -6209252.461
10 0 59778  49782.000000  0    1003078.920   3625500.595  -5777901.470
10 0 59778  49902.000000  0    1436735.546   4236839.385  -5245573.797
10 0 59778  50022.000000  0    1855427.341   4767127.402  -4621485.189
10 0 59778  50142.000000  0    2250351.205   5207406.106  -3916469.772
10 0 59778  50262.000000  0    2612959.606   5550413.849  -3142800.682
10 0 59778  50382.000000  0    2935143.414   5790715.910  -2313983.699
10 0 59778  50502.000000  0    3209411.520   5924801.213  -1444524.736
10 0 59778  50622.000000  0    3429061.824   5951142.157   -549674.927
10 0 59778  50742.000000  0    3588338.675   5870214.868    354841.718
10 0 59778  50862.000000  0    3682572.791   5684478.885   1253111.482
10 0 59778  50982.000000  0    3708300.980   5398316.867   2129318.443
10 0 59778  51102.000000  0    3663361.602   5017937.012   2968031.248
10 0 59778  51222.000000  0    3546962.928   4551237.705   3754484.209
10 0 59778  51342.000000  0    3359723.603   4007638.176   4474841.377
10 0 59778  51462.000000  0    3103683.952   3397884.073   5116444.796
10 0 59778  51582.000000  0    2782284.161   2733826.854   5668037.006
10 0 59778  51702.000000  0    2400317.815   2028187.088   6119953.334
10 0 59778  51822.000000  0    1963859.111   1294306.415   6464286.791
10 0 59778  51942.000000  0    1480162.976    545891.404   6695020.243
10 0 59778  52062.000000  0     957541.914   -203242.633   6808124.616
10 0 59778  52182.000000  0     405222.412   -939425.484   6801626.076
10 0 59778  52302.000000  0    -166818.261  -1649381.922   6675638.770
10 0 59778  52422.000000  0    -748032.393  -2320470.836   6432362.440
10 0 59778  52542.000000  0   -1327495.724  -2940910.517   6076045.101
10 0 59778  52662.000000  0   -1894109.998  -3499985.755   5612912.638
10 0 59778  52782.000000  0   -2436814.470  -3988235.729   5051067.908
10 0 59778  52902.000000  0   -2944804.214  -4397619.861   4400356.621
10 0 59778  53022.000000  0   -3407749.007  -4721656.617   3672199.209
10 0 59778  53142.000000  0   -3816006.162  -4955531.895   2879392.087
10 0 59778  53262.000000  0   -4160822.826  -5096175.141   2035882.888
10 0 59778  53382.000000  0   -4434525.182  -5142301.535   1156522.426
10 0 59778  53502.000000  0   -4630688.663  -5094417.560    256797.479
10 0 59778  53622.000000  0   -4744284.704  -4954790.330   -647449.441
10 0 59778  53742.000000  0   -4771800.321  -4727381.221  -1540308.323
10 0 59778  53862.000000  0   -4711326.206  -4417744.503  -2406091.240
10 0 59778  53982.000000  0   -4562611.356  -4032893.783  -3229615.136
10 0 59778  54102.000000  0   -4327083.907  -3581141.559  -3996471.423
10 0 59778  54222.000000  0   -4007838.583  -3071916.635  -4693277.976
10 0 59778  54342.000000  0   -3609591.513  -2515563.325  -5307909.221
10 0 59778  54462.000000  0   -3138603.805  -1923127.932  -5829699.863
10 0 59778  54582.000000  0   -2602577.032  -1306137.624  -6249620.383
10 0 59778  54702.000000  0   -2010522.179   -676375.785  -6560422.718
10 0 59778  54822.000000  0   -1372604.541    -45658.727  -6756753.469
10 0 59778  54942.000000  0    -699969.778    574381.437  -6835234.810
10 0 59778  55062.000000  0      -4552.885   1172505.644  -6794516.519
10 0 59778  55182.000000  0     701128.064   1738066.142  -6635296.364
10 0 59778  55302.000000  0    1404191.395   2261191.478  -6360311.891
10 0 59778  55422.000000  0    2091622.643   2732956.649  -5974298.417
10 0 59778  55542.000000  0    2750511.435   3145535.157  -5483915.828
10 0 59778  55662.000000  0    3368291.035   3492329.508  -4897643.598
10 0 59778  55782.000000  0    3932977.943   3768080.670  -4225646.537
10 0 59778  55902.000000  0    4433407.603   3968952.818  -3479609.009
10 0 59778  56022.000000  0    4859460.649   4092590.872  -2672539.398
10 0 59778  56142.000000  0    5202272.964   4138148.970  -1818547.532
10 0 59778  56262.000000  0    5454426.002   4106289.428   -932599.086
10 0 59778  56382.000000  0    5610111.397   3999150.876    -30250.423
10 0 59778  56502.000000  0    5665265.780   3820286.840    872629.592
10 0 59778  56622.000000  0    5617672.566   3574574.789   1760146.591
10 0 59778  56742.000000  0    5467026.036   3268097.441   2616669.425
10 0 59778  56862.000000  0    5214956.426   2908001.002   3427114.262
10 0 59778  56982.000000  0    4865015.325   2502332.554   4177217.812
10 0 59778  57102.000000  0    4422621.042   2059860.439   4853791.801
10 0 59778  57222.000000  0    3894970.300   1589885.423   5444955.038
10 0 59778  57342.000000  0    3290912.783   1102044.622   5940342.747
10 0 59778  57462.000000  0    2620793.616    606112.052   6331282.511
10 0 59778  57582.000000  0    1896270.636    111803.337   6610938.221
10 0 59778  57702.000000  0    1130109.005   -371413.035   6774424.567
10 0 59778  57822.000000  0     335953.686   -834496.671   6818888.732
10 0 59778  57942.000000  0    -471914.762  -1269003.887   6743556.030
10 0 59778  58062.000000  0   -1278836.578  -1667241.329   6549741.919
10 0 59778  58182.000000  0   -2070037.549  -2022402.134   6240828.987
10 0 59778  58302.000000  0   -2830897.026  -2328681.559   5822211.940
10 0 59778  58422.000000  0   -3547219.261  -2581373.615   5301212.270
10 0 59778  58542.000000  0   -4205503.719  -2776945.954   4686955.881
10 0 59778  58662.000000  0   -4793204.607  -2913089.905   3990217.274
10 0 59778  58782.000000  0   -5298976.127  -2988744.673   3223233.865
10 0 59778  58902.000000  0   -5712898.713  -3004096.050   2399493.453
10 0 59778  59022.000000  0   -6026682.087  -2960550.088   1533496.263
10 0 59778  59142.000000  0   -6233838.180  -2860681.195    640494.150
10 0 59778  59262.000000  0   -6329818.415  -2708154.123   -263785.309
10 0 59778  59382.000000  0   -6312113.835  -2507624.096  -1163424.320
10 0 59778  59502.000000  0   -6180312.864  -2264615.906  -2042605.358
10 0 59778  59622.000000  0   -5936115.295  -1985386.245  -2885896.813
99
